[
  {
    "OBJECT_NAME": "STARLINK-2363",
    "OBJECT_ID": "21021AV",
    "EPOCH": "2025-11-10T08:05:31.877664",
    "MEAN_MOTION": 15.06402134,
    "ECCENTRICITY": 0.0001503,
    "INCLINATION": 53.0552,
    "RA_OF_ASC_NODE": 77.4025,
    "ARG_OF_PERICENTER": 84.5532,
    "MEAN_ANOMALY": 275.5629,
    "EPHEMERIS_TYPE": 0,
    "CLASSIFICATION_TYPE": "U",
    "NORAD_CAT_ID": 47903,
    "ELEMENT_SET_NO": 999,
    "REV_AT_EPOCH": 25868,
    "BSTAR": 0.00035197,
    "MEAN_MOTION_DOT": 4.965e-05,
    "MEAN_MOTION_DDOT": 0.0,
    "TLE_LINE1": "1 47903U 21021AV  25314.33717451  .00004965  00000+0  35197-3 0  9996",
    "TLE_LINE2": "2 47903  53.0552  77.4025 0001503  84.5532 275.5629 15.06402134258687",
    "COMMENT": "Grouped by shell and plane from TLE"
  },
  {
    "OBJECT_NAME": "STARLINK-2364",
    "OBJECT_ID": "21021AW",
    "EPOCH": "2025-11-10T14:23:44.402208",
    "MEAN_MOTION": 15.06390833,
    "ECCENTRICITY": 9.82e-05,
    "INCLINATION": 53.0548,
    "RA_OF_ASC_NODE": 76.233,
    "ARG_OF_PERICENTER": 91.8282,
    "MEAN_ANOMALY": 268.2819,
    "EPHEMERIS_TYPE": 0,
    "CLASSIFICATION_TYPE": "U",
    "NORAD_CAT_ID": 47904,
    "ELEMENT_SET_NO": 999,
    "REV_AT_EPOCH": 25836,
    "BSTAR": 0.00017687,
    "MEAN_MOTION_DOT": 2.353e-05,
    "MEAN_MOTION_DDOT": 0.0,
    "TLE_LINE1": "1 47904U 21021AW  25314.59981947  .00002353  00000+0  17687-3 0  9991",
    "TLE_LINE2": "2 47904  53.0548  76.2330 0000982  91.8282 268.2819 15.06390833258369",
    "COMMENT": "Grouped by shell and plane from TLE"
  },
  {
    "OBJECT_NAME": "STARLINK-2378",
    "OBJECT_ID": "21021BJ",
    "EPOCH": "2025-11-11T07:38:46.871520",
    "MEAN_MOTION": 15.06380736,
    "ECCENTRICITY": 6.72e-05,
    "INCLINATION": 53.0604,
    "RA_OF_ASC_NODE": 73.007,
    "ARG_OF_PERICENTER": 145.2042,
    "MEAN_ANOMALY": 214.8991,
    "EPHEMERIS_TYPE": 0,
    "CLASSIFICATION_TYPE": "U",
    "NORAD_CAT_ID": 47916,
    "ELEMENT_SET_NO": 999,
    "REV_AT_EPOCH": 25847,
    "BSTAR": 0.0,
    "MEAN_MOTION_DOT": -8.22e-06,
    "MEAN_MOTION_DDOT": 0.0,
    "TLE_LINE1": "1 47916U 21021BJ  25315.31859805 -.00000822  00000+0 -36351-4 0  9993",
    "TLE_LINE2": "2 47916  53.0604  73.0070 0000672 145.2042 214.8991 15.06380736258476",
    "COMMENT": "Grouped by shell and plane from TLE"
  },
  {
    "OBJECT_NAME": "STARLINK-3004",
    "OBJECT_ID": "21059B",
    "EPOCH": "2025-11-11T07:32:32.079552",
    "MEAN_MOTION": 15.01269971,
    "ECCENTRICITY": 0.0001755,
    "INCLINATION": 97.6598,
    "RA_OF_ASC_NODE": 78.5284,
    "ARG_OF_PERICENTER": 220.4038,
    "MEAN_ANOMALY": 139.7056,
    "EPHEMERIS_TYPE": 0,
    "CLASSIFICATION_TYPE": "U",
    "NORAD_CAT_ID": 48880,
    "ELEMENT_SET_NO": 999,
    "REV_AT_EPOCH": 24104,
    "BSTAR": 0.0001936,
    "MEAN_MOTION_DOT": 2.429e-05,
    "MEAN_MOTION_DDOT": 0.0,
    "TLE_LINE1": "1 48880U 21059B   25315.31426018  .00002429  00000+0  19360-3 0  9994",
    "TLE_LINE2": "2 48880  97.6598  78.5284 0001755 220.4038 139.7056 15.01269971241048",
    "COMMENT": "Grouped by shell and plane from TLE"
  },
  {
    "OBJECT_NAME": "STARLINK-3005",
    "OBJECT_ID": "21059C",
    "EPOCH": "2025-11-11T07:22:56.772192",
    "MEAN_MOTION": 15.01257059,
    "ECCENTRICITY": 0.0001638,
    "INCLINATION": 97.6626,
    "RA_OF_ASC_NODE": 78.4775,
    "ARG_OF_PERICENTER": 183.2377,
    "MEAN_ANOMALY": 176.8837,
    "EPHEMERIS_TYPE": 0,
    "CLASSIFICATION_TYPE": "U",
    "NORAD_CAT_ID": 48881,
    "ELEMENT_SET_NO": 999,
    "REV_AT_EPOCH": 24104,
    "BSTAR": 0.0,
    "MEAN_MOTION_DOT": -4.839e-05,
    "MEAN_MOTION_DDOT": 0.0,
    "TLE_LINE1": "1 48881U 21059C   25315.30760153 -.00004839  00000+0 -37239-3 0  9999",
    "TLE_LINE2": "2 48881  97.6626  78.4775 0001638 183.2377 176.8837 15.01257059241040",
    "COMMENT": "Grouped by shell and plane from TLE"
  },
  {
    "OBJECT_NAME": "STARLINK-3297",
    "OBJECT_ID": "21125D",
    "EPOCH": "2025-11-11T07:47:10.586976",
    "MEAN_MOTION": 15.08740895,
    "ECCENTRICITY": 0.0002065,
    "INCLINATION": 53.217,
    "RA_OF_ASC_NODE": 70.4968,
    "ARG_OF_PERICENTER": 90.5202,
    "MEAN_ANOMALY": 269.6026,
    "EPHEMERIS_TYPE": 0,
    "CLASSIFICATION_TYPE": "U",
    "NORAD_CAT_ID": 50159,
    "ELEMENT_SET_NO": 999,
    "REV_AT_EPOCH": 21858,
    "BSTAR": 0.0017746,
    "MEAN_MOTION_DOT": 0.00027992,
    "MEAN_MOTION_DDOT": 0.0,
    "TLE_LINE1": "1 50159U 21125D   25315.32442809  .00027992  00000+0  17746-2 0  9994",
    "TLE_LINE2": "2 50159  53.2170  70.4968 0002065  90.5202 269.6026 15.08740895218587",
    "COMMENT": "Grouped by shell and plane from TLE"
  },
  {
    "OBJECT_NAME": "STARLINK-3304",
    "OBJECT_ID": "21125F",
    "EPOCH": "2025-11-10T17:43:10.733952",
    "MEAN_MOTION": 15.08857409,
    "ECCENTRICITY": 0.0001418,
    "INCLINATION": 53.2132,
    "RA_OF_ASC_NODE": 73.1147,
    "ARG_OF_PERICENTER": 85.3598,
    "MEAN_ANOMALY": 274.7556,
    "EPHEMERIS_TYPE": 0,
    "CLASSIFICATION_TYPE": "U",
    "NORAD_CAT_ID": 50161,
    "ELEMENT_SET_NO": 999,
    "REV_AT_EPOCH": 21849,
    "BSTAR": 3.734700000000001e-05,
    "MEAN_MOTION_DOT": 3.07e-06,
    "MEAN_MOTION_DDOT": 0.0,
    "TLE_LINE1": "1 50161U 21125F   25314.73831868  .00000307  00000+0  37347-4 0  9990",
    "TLE_LINE2": "2 50161  53.2132  73.1147 0001418  85.3598 274.7556 15.08857409218493",
    "COMMENT": "Grouped by shell and plane from TLE"
  },
  {
    "OBJECT_NAME": "STARLINK-3298",
    "OBJECT_ID": "21125K",
    "EPOCH": "2025-11-11T07:40:27.263136",
    "MEAN_MOTION": 15.08840896,
    "ECCENTRICITY": 0.0001714,
    "INCLINATION": 53.218,
    "RA_OF_ASC_NODE": 70.5023,
    "ARG_OF_PERICENTER": 87.1162,
    "MEAN_ANOMALY": 273.0027,
    "EPHEMERIS_TYPE": 0,
    "CLASSIFICATION_TYPE": "U",
    "NORAD_CAT_ID": 50165,
    "ELEMENT_SET_NO": 999,
    "REV_AT_EPOCH": 21863,
    "BSTAR": 0.00011116,
    "MEAN_MOTION_DOT": 1.481e-05,
    "MEAN_MOTION_DDOT": 0.0,
    "TLE_LINE1": "1 50165U 21125K   25315.31975999  .00001481  00000+0  11116-3 0  9992",
    "TLE_LINE2": "2 50165  53.2180  70.5023 0001714  87.1162 273.0027 15.08840896218633",
    "COMMENT": "Grouped by shell and plane from TLE"
  },
  {
    "OBJECT_NAME": "STARLINK-3271",
    "OBJECT_ID": "21125M",
    "EPOCH": "2025-11-11T07:31:14.226240",
    "MEAN_MOTION": 15.08840517,
    "ECCENTRICITY": 0.0001711,
    "INCLINATION": 53.22,
    "RA_OF_ASC_NODE": 70.5414,
    "ARG_OF_PERICENTER": 87.6737,
    "MEAN_ANOMALY": 272.4451,
    "EPHEMERIS_TYPE": 0,
    "CLASSIFICATION_TYPE": "U",
    "NORAD_CAT_ID": 50167,
    "ELEMENT_SET_NO": 999,
    "REV_AT_EPOCH": 21858,
    "BSTAR": 0.00010305000000000001,
    "MEAN_MOTION_DOT": 1.352e-05,
    "MEAN_MOTION_DDOT": 0.0,
    "TLE_LINE1": "1 50167U 21125M   25315.31335910  .00001352  00000+0  10305-3 0  9993",
    "TLE_LINE2": "2 50167  53.2200  70.5414 0001711  87.6737 272.4451 15.08840517218580",
    "COMMENT": "Grouped by shell and plane from TLE"
  },
  {
    "OBJECT_NAME": "STARLINK-3274",
    "OBJECT_ID": "21125AG",
    "EPOCH": "2025-11-10T17:16:40.827072",
    "MEAN_MOTION": 15.08853506,
    "ECCENTRICITY": 0.0001128,
    "INCLINATION": 53.2173,
    "RA_OF_ASC_NODE": 73.1942,
    "ARG_OF_PERICENTER": 88.9669,
    "MEAN_ANOMALY": 271.1452,
    "EPHEMERIS_TYPE": 0,
    "CLASSIFICATION_TYPE": "U",
    "NORAD_CAT_ID": 50186,
    "ELEMENT_SET_NO": 999,
    "REV_AT_EPOCH": 21849,
    "BSTAR": 0.0,
    "MEAN_MOTION_DOT": -9.02e-06,
    "MEAN_MOTION_DDOT": 0.0,
    "TLE_LINE1": "1 50186U 21125AG  25314.71991698 -.00000902  00000+0 -38549-4 0  9991",
    "TLE_LINE2": "2 50186  53.2173  73.1942 0001128  88.9669 271.1452 15.08853506218494",
    "COMMENT": "Grouped by shell and plane from TLE"
  },
  {
    "OBJECT_NAME": "STARLINK-3273",
    "OBJECT_ID": "21125AM",
    "EPOCH": "2025-11-10T11:32:14.211456",
    "MEAN_MOTION": 15.0883863,
    "ECCENTRICITY": 0.0001193,
    "INCLINATION": 53.2165,
    "RA_OF_ASC_NODE": 74.2702,
    "ARG_OF_PERICENTER": 80.4568,
    "MEAN_ANOMALY": 279.6559,
    "EPHEMERIS_TYPE": 0,
    "CLASSIFICATION_TYPE": "U",
    "NORAD_CAT_ID": 50191,
    "ELEMENT_SET_NO": 999,
    "REV_AT_EPOCH": 21845,
    "BSTAR": 5.1244000000000006e-05,
    "MEAN_MOTION_DOT": 5.28e-06,
    "MEAN_MOTION_DDOT": 0.0,
    "TLE_LINE1": "1 50191U 21125AM  25314.48072004  .00000528  00000+0  51244-4 0  9991",
    "TLE_LINE2": "2 50191  53.2165  74.2702 0001193  80.4568 279.6559 15.08838630218452",
    "COMMENT": "Grouped by shell and plane from TLE"
  },
  {
    "OBJECT_NAME": "STARLINK-3978",
    "OBJECT_ID": "22052AP",
    "EPOCH": "2025-11-11T07:24:33.747552",
    "MEAN_MOTION": 15.08824021,
    "ECCENTRICITY": 0.0001356,
    "INCLINATION": 53.2167,
    "RA_OF_ASC_NODE": 70.5504,
    "ARG_OF_PERICENTER": 95.9644,
    "MEAN_ANOMALY": 264.1502,
    "EPHEMERIS_TYPE": 0,
    "CLASSIFICATION_TYPE": "U",
    "NORAD_CAT_ID": 52635,
    "ELEMENT_SET_NO": 999,
    "REV_AT_EPOCH": 19326,
    "BSTAR": 0.00040468,
    "MEAN_MOTION_DOT": 6.156e-05,
    "MEAN_MOTION_DDOT": 0.0,
    "TLE_LINE1": "1 52635U 22052AP  25315.30872393  .00006156  00000+0  40468-3 0  9995",
    "TLE_LINE2": "2 52635  53.2167  70.5504 0001356  95.9644 264.1502 15.08824021193262",
    "COMMENT": "Grouped by shell and plane from TLE"
  },
  {
    "OBJECT_NAME": "STARLINK-3961",
    "OBJECT_ID": "22052AR",
    "EPOCH": "2025-11-11T07:19:13.783296",
    "MEAN_MOTION": 15.08906493,
    "ECCENTRICITY": 0.0001654,
    "INCLINATION": 53.2185,
    "RA_OF_ASC_NODE": 70.567,
    "ARG_OF_PERICENTER": 76.9813,
    "MEAN_ANOMALY": 283.1364,
    "EPHEMERIS_TYPE": 0,
    "CLASSIFICATION_TYPE": "U",
    "NORAD_CAT_ID": 52637,
    "ELEMENT_SET_NO": 999,
    "REV_AT_EPOCH": 19406,
    "BSTAR": 0.0,
    "MEAN_MOTION_DOT": -0.0001377,
    "MEAN_MOTION_DDOT": 0.0,
    "TLE_LINE1": "1 52637U 22052AR  25315.30502064 -.00013770  00000+0 -84719-3 0  9991",
    "TLE_LINE2": "2 52637  53.2185  70.5670 0001654  76.9813 283.1364 15.08906493194066",
    "COMMENT": "Grouped by shell and plane from TLE"
  }
]